{"type":"FeatureCollection","features":[{"type":"Feature","geometry":{"type":"Polygon","coordinates":[[[105.93657604156958,21.243313486236516],[105.93396746259367,21.24407151481485],[105.9331514263044,21.244080438223058],[105.93250489214354,21.244232065452103],[105.92941916284968,21.243705893225524],[105.9264360223781,21.243772817192323],[105.92529447852918,21.24346958363288],[105.92513394947865,21.242711532616255],[105.92608825232165,21.24101260010851],[105.92645385905546,21.24027237535664],[105.92687297664249,21.238872219673326],[105.92658319742463,21.23825243705414],[105.9259187594669,21.237329336213307],[105.92083090754336,21.2342525731318],[105.92050098392465,21.23425260353692],[105.920327014653,21.23349008036107],[105.91918102633332,21.23134083775874],[105.91853453998198,21.231041996342313],[105.91689355192628,21.232112229012237],[105.9139461011256,21.231960583522568],[105.9129561888789,21.230729886770455],[105.90886717595976,21.230738818902342],[105.90804219627873,21.230279550346147],[105.90738678588306,21.230279559531272],[105.90657964748605,21.230738813250703],[105.90608027378609,21.23089038685782],[105.90509918577547,21.22982029083637],[105.90542478059925,21.22936094298051],[105.90590631782449,21.228281819365822],[105.90492083927622,21.227051127115477],[105.90360986326235,21.227051114763633],[105.90360986326235,21.226600800053575],[105.90323533877341,21.224638734782012],[105.90329771465953,21.223029006155773],[105.90408252337278,21.222190766513275],[105.90540246483364,21.221990023590166],[105.90653949678783,21.222449387487828],[105.90818935697382,21.22383164819149],[105.90899650227112,21.22397885838755],[105.90960737536216,21.22372019101481],[105.91030742617181,21.22274809166053],[105.91111897213445,21.22106254199631],[105.91200195245239,21.219657920208324],[105.91355811226563,21.21736151843641],[105.91406198707305,21.215689318289797],[105.91464168675664,21.213620366832696],[105.91484684064314,21.211078625418143],[105.91500287963768,21.209232568160328],[105.9144990023154,21.20816241236323],[105.91351356843515,21.207680799040542],[105.9112171107291,21.207551474373563],[105.90950036488,21.207078859989682],[105.908965223758,21.20645904944727],[105.90902769116614,21.20546906900434],[105.91146680422412,21.203622987665497],[105.91185918038484,21.20265090583503],[105.91188597814696,21.201919618613346],[105.91101644200432,21.201201720036366],[105.90970551316933,21.20035002123508],[105.90724849843483,21.19805363914024],[105.90592863364984,21.19575271921267],[105.90592415256019,21.195293386990574],[105.90518396763791,21.19458890175088],[105.90542478059925,21.19387992791971],[105.90585281362752,21.192310281801998],[105.90804219627873,21.19252879227748],[105.91115025100518,21.192368294577207],[105.91130628693932,21.190829841167552],[105.91342887244848,21.18945203129495],[105.91407982258096,21.188221282504077],[105.91439647034642,21.186691818722103],[105.91750445061261,21.184841276991296],[105.92305604723138,21.182067751144537],[105.92305156573461,21.18176900363715],[105.92122778464102,21.178549522230348],[105.9207373350159,21.177479324111903],[105.92122778464102,21.177020029226014],[105.92122778464102,21.176551810170064],[105.92006843620187,21.174870777115885],[105.9202289609456,21.17395215674622],[105.92005947335029,21.17334125833699],[105.9192434971268,21.17302913826208],[105.91809303400882,21.1724182201478],[105.91808416087866,21.170581103626382],[105.91725923047969,21.170121823176313],[105.91725923047969,21.168739520564518],[105.9175802753235,21.167972493530893],[105.91732609237027,21.16668833767675],[105.91738847292228,21.166171069088897],[105.92044747558447,21.1630809047076],[105.92162914403602,21.1632191202426],[105.92276618423958,21.16352233877141],[105.92307388358957,21.162443197490884],[105.92289552008354,21.161988404083598],[105.92208840491766,21.161680725077737],[105.92092905119243,21.16093157878652],[105.92057680983979,21.159388714651808],[105.92003724548023,21.155710009052935],[105.92117427609476,21.15430981306807],[105.92244513057325,21.152008890162644],[105.92355994740615,21.149699091576405],[105.92418861450406,21.14800912265148],[105.92500461210167,21.147081633443527],[105.92545500771611,21.146863170548702],[105.92579838467614,21.145538759092425],[105.9264360223781,21.1446201769854],[105.9267258910019,21.141391778940186],[105.92605697097424,21.14092802776771],[105.9255665088062,21.14048215152307],[105.92572703822431,21.140321668433877],[105.92636915726082,21.13909095176356],[105.92652072420269,21.138319471663603],[105.92469699923656,21.136651760743028],[105.92501805673133,21.136179095631775],[105.92533911477182,21.135412126866736],[105.92516514104229,21.134341956183874],[105.92482185486412,21.13388265101203],[105.92417077804059,21.133891637642265],[105.9236669658661,21.133120183611673],[105.92204376944338,21.133900508625143],[105.92043403128027,21.132540512008227],[105.91873073531461,21.131011048889928],[105.9198588848435,21.129619789935482],[105.91969387899752,21.129013314031702],[105.91570295048977,21.124581007884196],[105.91570295048977,21.124121725365903],[105.91633616237763,21.123501929710706],[105.91626930083798,21.119051681972888],[105.91700056660603,21.11910969465885],[105.91776311517727,21.119038370397686],[105.92019777019743,21.11872169938611],[105.92233363132608,21.118088594656463],[105.92281969323705,21.118538919705944],[105.92333246615755,21.119622495035166],[105.92381853063972,21.119921285376858],[105.92414854968646,21.119760741949914],[105.92463900817273,21.119301384283975],[105.92430011484657,21.118842172351545],[105.92262349365382,21.115631585234233],[105.92375166644902,21.114699658015027],[105.92521865071946,21.114231461233576],[105.92603474239814,21.113767676038425],[105.92600794262641,21.112077652121556],[105.9266589361504,21.111457843511793],[105.92811706939479,21.110829153299346],[105.92912489808693,21.111440001849385],[105.93171557310697,21.110338630005405],[105.93221501465835,21.1098793907303],[105.93250489214354,21.107284122225348],[105.93296857155539,21.106811521610386],[105.93477005707845,21.105879547189833],[105.93524270561309,21.10418951019232],[105.93570648137049,21.102651142277065],[105.93620145164859,21.10217846269142],[105.93633967067167,21.100952262377103],[105.93746783568061,21.09986865393767],[105.93746335384223,21.099101683048094],[105.93643334055989,21.095578972405885],[105.93659387920336,21.095422934272438],[105.93802080571412,21.0918823703117],[105.93917121085785,21.09202956795417],[105.93965722641336,21.09172192085079],[105.94206070012878,21.087869233187487],[105.94188680066041,21.087249444491462],[105.9405668730436,21.08679903276457],[105.9405668730436,21.086339715659513],[105.94103066184212,21.084502624641242],[105.94152116410294,21.084029961754275],[105.94497694627768,21.085702108328405],[105.94650200320248,21.08638879945636],[105.94908825455514,21.087851344369465],[105.95075148442649,21.088422176403995],[105.95451948816732,21.09008092029398],[105.95633874905492,21.090682919830044],[105.95781916371978,21.091142226528408],[105.95878680928254,21.09004969159658],[105.95974101267726,21.08773987493042],[105.96048571420111,21.083436887348476],[105.96124377619371,21.078059229584543],[105.96272422905899,21.07789865641686],[105.96351789065348,21.07759097826456],[105.96755339685349,21.072949046193603],[105.96846748038763,21.072088511999905],[105.96920773348005,21.071227873384757],[105.97410385798098,21.070438588057666],[105.97933883028136,21.069818756461412],[105.98237543108364,21.069658272055488],[105.98442663658115,21.069221303706488],[105.99017439705273,21.069689507722927],[105.99471374905205,21.0707998044124],[105.99722426040847,21.071531062636552],[105.99865558672123,21.073319157388113],[106.00274016646915,21.069100855316144],[106.00448815254265,21.066010683950772],[106.00691387502394,21.063370915289624],[106.00971418256297,21.06457934909579],[106.01100284529639,21.062724344646394],[106.00795727152392,21.05768107839138],[106.00811787044081,21.05598218194471],[106.00843001199223,21.055683408863135],[106.00940652245254,21.05567006737363],[106.0099103822731,21.055973234305668],[106.01026269934941,21.05719062420551],[106.01075759429382,21.05750277782897],[106.01140421470654,21.057351126778936],[106.01252789211046,21.05564327238782],[106.013838902231,21.05562988379515],[106.01465492536208,21.055170648303584],[106.01458802926943,21.050858689542192],[106.01951526681053,21.046591328444688],[106.01999691361425,21.04581990217113],[106.01999691361425,21.040669621921822],[106.01882862403107,21.038529296056186],[106.01580982820086,21.033940812789194],[106.01362037003172,21.030418191084106],[106.0112302519905,21.02960215554516],[106.01000399865889,21.029669023123795],[106.00653932611807,21.028184136581803],[106.0097721995496,21.025071743475316],[106.00811787044081,21.0244697256708],[106.00744453953348,21.023412880793195],[106.0057991077244,21.022498807226608],[106.00493407356933,21.019890227850237],[106.00405110969562,21.01782119310769],[106.00618701588057,21.01634077270923],[106.00618701588057,21.01588150161061],[106.00533982404751,21.014512575959927],[106.00615141724916,21.01326848300362],[106.00546912636928,21.01173896531538],[106.00533982404751,21.011391174515875],[106.00698076844155,21.012042219230793],[106.00924601212735,21.012630807298063],[106.01004865476703,21.011391201157817],[106.00921480678363,21.010628665010852],[106.0090186077848,21.008327768582376],[106.0062316711001,21.007431499497326],[106.00556274058731,21.00727991263859],[106.00505001499955,21.00620972337971],[106.00145146959855,21.00608036869896],[106.00154068817442,21.00117090784767],[106.00202228986777,21.000840933442433],[106.00628511390661,21.001050544082233],[106.00670431764554,20.999445257714285],[106.01087353924427,20.99952102219871],[106.01255909799289,21.002134077927927],[106.01476190535493,21.00203150313045],[106.01583655093589,21.001741661434142],[106.0170226674868,20.99920001384157],[106.01767818676883,20.99796928163643],[106.01785206565133,20.99689014286832],[106.01802146095943,20.996578021471656],[106.01899802019994,20.996591422534095],[106.01982742688958,20.995512336967842],[106.02130788502583,20.99474981272717],[106.02278826488381,20.99429056023499],[106.02425977805908,20.99413895310882],[106.0245897917004,20.99506645024986],[106.02481273058388,20.99516008292231],[106.02507575575322,20.9950664185541],[106.02688618218531,20.993380915413848],[106.02739008783632,20.993389759038163],[106.0278761486392,20.993849115062975],[106.02836660496256,20.993701959627405],[106.02852713125674,20.993238177908363],[106.02919156805089,20.993550316616282],[106.03246455132958,20.997420785279203],[106.0329371727006,20.9978800772902],[106.03410545824376,20.997888992427644],[106.03492147765557,20.997429696877873],[106.03671854412335,20.998508807713954],[106.0376950188423,20.998508833192595],[106.03803393421211,20.998990411869894],[106.03837733438311,20.999628044413267],[106.04020555373178,21.000840961166567],[106.04152545187453,21.001911091888655],[106.0426803365214,21.001590040321517],[106.0435319977469,21.002178657876424],[106.0452487845626,21.00286983605095],[106.04754075731084,21.003329086889803],[106.04991302930674,21.003217640477107],[106.05074238964005,21.00352082999886],[106.05024739195024,21.00428779877415],[106.05193293647349,21.005968913407965],[106.05535752601173,21.005630039129535],[106.05500970075816,21.00410052214527],[106.05661052727258,21.00178183356277],[106.05692265769622,21.000711661024955],[106.05805081605074,20.999610267386227],[106.0623093187797,20.99941852588155],[106.0656803634572,21.000091794160408],[106.06756660616546,21.000149828653907],[106.06857436188072,20.998821013729675],[106.06888651157543,20.99834829552916],[106.06888651157543,20.997581321987532],[106.06939034735773,20.99713095224503],[106.07235122750863,20.996060797341777],[106.07449156770565,20.99576200132551],[106.07496420206178,20.99606974987713],[106.07512476704119,20.99684110579754],[106.07530309299513,20.997148773516855],[106.07595863065536,20.99700164705885],[106.07612807691558,20.99529829981808],[106.0772695332076,20.994999549839765],[106.077764510209,20.995472199226654],[106.07824612278566,20.996239183187956],[106.07874998285303,20.996404138385063],[106.07956601108796,20.996092041964943],[106.07972657986997,20.995940416283126],[106.08071197275747,20.997648205160676],[106.08201402663946,20.99779986607524],[106.0825135009484,20.998571283274835],[106.08283903904311,20.999498796134265],[106.08316009244002,21.00185759840458],[106.0836862121028,21.003538698191612],[106.08434168832622,21.00431015377298],[106.08648655616162,21.005518579189328],[106.0881185912566,21.004577631317353],[106.08927796974095,21.00566121766799],[106.09139158363698,21.004238755782822],[106.09287196130464,21.0048496857447],[106.09530659789681,21.003137360504063],[106.09546717966134,21.00282970739523],[106.09512385780386,21.002062734943422],[106.09674250858312,21.000809689053565],[106.09790184865976,21.001567739876617],[106.09990843922769,20.999570137252793],[106.10172333280585,20.997719587490195],[106.10206666627703,20.997362841879923],[106.10254824923157,20.997108647404023],[106.10450132789826,20.99759025207442],[106.1090986309806,20.9997618343126],[106.11074852959828,20.998071873528463],[106.11337933474685,20.99669842127491],[106.11583638779874,20.99577988797263],[106.11601914726789,20.994089858901706],[106.11588097858132,20.988841529249935],[106.11506049186418,20.988070051282264],[106.11489989399185,20.98714258974794],[106.11506049186418,20.986830444553412],[106.11474835790801,20.984369021115427],[106.11490437996413,20.983900790830525],[106.11540384876292,20.98374918912873],[106.11621985091688,20.98390974462209],[106.11704473879463,20.984369065967904],[106.11934123633837,20.984846153689684],[106.12312249489342,20.98440024655316],[106.12541000152427,20.98394991150991],[106.12574000762544,20.98364223960896],[106.12671657053191,20.98673234896321],[106.12883014063708,20.99198072966657],[106.13078321234829,20.995998381052722],[106.13157693648341,20.99816103101269],[106.13175091736645,20.9990796167495],[106.1324063753526,20.999699425625703],[106.13503280533675,21.000787410036537],[106.14019639852094,21.002428430107372],[106.14189976975968,20.999200024034103],[106.14359427222473,20.996051911815208],[106.14968092622708,20.990830272625182],[106.15132183347619,20.9899116763218],[106.15329729358965,20.989461282205607],[106.155745333769,20.988689875091342],[106.15708306416576,20.98885041010808],[106.1585456310636,20.9902506113738],[106.16001709306576,20.990718756578275],[106.1610115049885,20.990098996170232],[106.1633079776151,20.98902881186523],[106.16512282909237,20.98827069601167],[106.16642930273662,20.988730040897828],[106.16839576018502,20.98674123973885],[106.16873023579488,20.98612141140368],[106.17005010522686,20.98411935610857],[106.17038898112796,20.982741435656322],[106.17022842782808,20.982580897053374],[106.1700589899425,20.98242934457648],[106.16777150295377,20.97933026080096],[106.16368246941177,20.975111955248213],[106.16394110518644,20.974728415189443],[106.16448960799156,20.97397933039613],[106.16462781083644,20.97345758310658],[106.16626875265236,20.97166058390565],[106.166670083236,20.96934188469426],[106.16707590179705,20.9689494801329],[106.16792307989498,20.96947113994572],[106.16832890102847,20.969850177865805],[106.16845822191412,20.970358539098214],[106.1698539236279,20.971009583240463],[106.16999213022356,20.971522378163915],[106.1698539236279,20.9721689094076],[106.17040235309678,20.972811075355622],[106.17233313128985,20.97306075971429],[106.17398750926182,20.974599141675963],[106.17468313472537,20.974991561634283],[106.1759718118116,20.975192240134483],[106.17632846784761,20.975241293935742],[106.17701072912055,20.975629165297256],[106.17730061458765,20.976271272292994],[106.17833514119818,20.976846554282492],[106.1781299765601,20.977559979106115],[106.1781299765601,20.977809730868234],[106.17854470372285,20.977938985033365],[106.17962823974767,20.977172078028946],[106.18032828273913,20.977301386002733],[106.18060480040212,20.977421784189904],[106.18060928787145,20.978451786549826],[106.18129596162318,20.978969017319812],[106.18239737298035,20.978839742532763],[106.18390455376705,20.979218806114073],[106.1843281783696,20.979218770588442],[106.18472945581394,20.978581082664835],[106.18521106162007,20.97838493185137],[106.18611180942352,20.978701470488346],[106.18638824540065,20.979352524880635],[106.18625442520907,20.980248801190317],[106.186530951137,20.980761638148586],[106.18750745603688,20.980890918111808],[106.18900130242677,20.979731599741775],[106.18995556058397,20.979209882987252],[106.19078937343237,20.979080558638135],[106.19284950753061,20.979579992237742],[106.19587723347145,20.98048067411581],[106.20069747407044,20.9820235680888],[106.20189700985533,20.98254973950479],[106.20207984904137,20.982661169620147],[106.20361374807305,20.98283066707952],[106.20440749542237,20.982910906851213],[106.20854996904347,20.98419064547961],[106.21032914975979,20.984962119686664],[106.21267906421657,20.986121444387603],[106.21530108404444,20.987909544605035],[106.21737008937143,20.988680963612733],[106.21956838054015,20.989055566402534],[106.22026847434879,20.98945236285215],[106.22067871125107,20.99009007242546],[106.2205449577702,20.9906117880499],[106.22029971336553,20.995240297347394],[106.22125843039359,20.99536960833103],[106.22482125349973,20.994072032035074],[106.22509765345264,20.994072059859548],[106.22579327814998,20.995360719429705],[106.22627938201764,20.99555692857845],[106.22676090878704,20.99523137847484],[106.22717115901895,20.994459968785506],[106.22715778323226,20.993808916730064],[106.22798717347038,20.993550340621393],[106.22838405034939,20.993679647126754],[106.22894143881818,20.99329170088727],[106.22907968648039,20.992520287448876],[106.23002497987378,20.991869239532928],[106.231001518423,20.9923909210647],[106.23182643597427,20.993550296221837],[106.23210742401102,20.99419240594273],[106.23266482285264,20.994700755556867],[106.23335149655034,20.99470081027639],[106.23388654527918,20.993929344796832],[106.23361013318183,20.992118981396086],[106.23388654527918,20.99186920210314],[106.23457331294105,20.991610628601936],[106.23565688448642,20.991476844017562],[106.23663336073452,20.99198965560709],[106.23705251891097,20.99263170795203],[106.23773031991684,20.99289034694566],[106.23814948038832,20.992890395841766],[106.23924195908117,20.99172213188653],[106.23924195908117,20.991209314400216],[106.23826538034358,20.990049946112833],[106.23826538034358,20.98954163054464],[106.23882279632448,20.989019901899436],[106.23963885827159,20.989019876965788],[106.24088288781103,20.990049961616375],[106.24198875817807,20.991459026183854],[106.24268435178848,20.991588322351102],[106.24350042945346,20.991071043011388],[106.24488274151754,20.9896485873338],[106.24539106702156,20.98933646962263],[106.24601529824791,20.99009896799012],[106.24617142369209,20.995958230848288],[106.24649696224293,20.996729611105096],[106.24719257148409,20.997090814868567],[106.24820923548039,20.996207926879002],[106.24957820269312,20.995820001543493],[106.25013107129465,20.99594930227735],[106.25219118910037,20.99606971454954],[106.2542780832194,20.994129966051773],[106.25576740122038,20.99322030554761],[106.2569177964951,20.992769957858858],[106.25776059786553,20.991708717470452],[106.25876833687661,20.99018368113307],[106.25926331958493,20.98988051357665],[106.2605653822172,20.989809130248716],[106.26114503713757,20.9895014963442],[106.26209039181197,20.98844915128264],[106.26316953275264,20.987410155174],[106.2660589725408,20.987240733957446],[106.26728969738504,20.987749063805037],[106.2695460008927,20.989902771488378],[106.27162840584501,20.990901590339828],[106.27274315500048,20.991258375427716],[106.27218582454789,20.99516004244235],[106.27211004137345,20.99759915397924],[106.27200301115663,20.99931147184765],[106.27197176409061,21.000091783749838],[106.27301073163085,21.00225005362555],[106.27446885092068,21.004484069773333],[106.27649779039587,21.006628818141852],[106.2796101994764,21.009041232566325],[106.28177729492515,21.010610860846313],[106.28669568390305,21.014722177366508],[106.29160521256223,21.01794164146137],[106.29434311695039,21.02067944298736],[106.29471767455954,21.0228198324641],[106.29440103818487,21.023140912337563],[106.29383915800896,21.02698910937071],[106.29319708811632,21.02776950446013],[106.29238107859007,21.031238647202272],[106.29220713707045,21.034391229819743],[106.29251928003822,21.03676790618643],[106.29466415345863,21.040571517166544],[106.29973417311402,21.04663146763632],[106.30615077011063,21.052789482791688],[106.3088306760768,21.056593103502955],[106.3093123103232,21.06019159794722],[106.30883965675339,21.061431217029853],[106.30761783934923,21.064338557677434],[106.30703814097599,21.067379681423155],[106.30549528024736,21.068547964002143],[106.30406836902378,21.069212357336557],[106.30296251748018,21.071250127202116],[106.3019547376043,21.07365806736846],[106.30177189730783,21.07565128291793],[106.30179425841581,21.078228646703323],[106.301054008268,21.08708889232271],[106.29640763753221,21.102610988573144],[106.29551133308117,21.106539464211725],[106.29514126403991,21.107480372967625],[106.29582797119099,21.112461136444463],[106.29730394594738,21.11811087245935],[106.29892702769962,21.121388281759508],[106.29502084133094,21.12584293223942],[106.29228292778133,21.12809923793954],[106.2871683756435,21.130970904602894],[106.28414959697594,21.131559528244544],[106.28085878627175,21.131621942959217],[106.27526260955399,21.131028852654442],[106.2730463786114,21.131372228192603],[106.27050917336288,21.135260579511755],[106.26741899261789,21.143300356259015],[106.26494426034992,21.146158546201256],[106.2643868616743,21.14672935882239],[106.26323642369938,21.147380370083788],[106.26008826354317,21.1492710505731],[106.2564451756466,21.152182815859383],[106.25530807095684,21.154840458964568],[106.25528131562982,21.15780133857885],[106.25638717552022,21.16134182389337],[106.25768482011833,21.16266176561067],[106.25795677617072,21.16435171253191],[106.25779624214749,21.165961475975987],[106.25628015365909,21.168190977172312],[106.25309636913165,21.170616728901273],[106.25203065968122,21.17119201043095],[106.25047888190927,21.171249953225633],[106.24704542317434,21.17121873602124],[106.24340679133051,21.16988996337996],[106.23899229274592,21.167531036374218],[106.23647284376405,21.16557793763921],[106.23335149655034,21.162951601474273],[106.23184878932122,21.161431009285007],[106.2301766042725,21.159602811302676],[106.22776867158456,21.157471340410876],[106.22569076110481,21.156258486174924],[106.22197630420017,21.15513926293759],[106.21880141304116,21.15456850376894],[106.21679038152008,21.154390130610516],[106.2135173707441,21.154381161285105],[106.21225107055221,21.15433216478561],[106.2096692146727,21.154720100520827],[106.20778744223944,21.155201657936114],[106.20683318826396,21.156280714230142],[106.20701603198364,21.157208255214314],[106.20851873186692,21.159192564586462],[106.2111808211215,21.161319569347484],[106.21508699451903,21.165742997358745],[106.2159119361336,21.16674177091885],[106.21643814115203,21.16811077270419],[106.2184313055982,21.169341467494892],[106.21980473710606,21.170661358597158],[106.22132081897391,21.172320145707367],[106.22078571410024,21.17358652767488],[106.22017484709512,21.174451623218694],[106.21927861297864,21.175298846935775],[106.21766883077362,21.175789336613224],[106.2141416820494,21.175820551630657],[106.21221983279558,21.175642187949716],[106.21090883883035,21.17554855159755],[106.20858560456408,21.17595427249927],[106.20567383552687,21.177300940949753],[106.202146719576,21.17865208741998],[106.19922597918605,21.180190431461625],[106.19742006036724,21.18105104153555],[106.19489171182575,21.1813498601442],[106.19288065249188,21.18136768658397],[106.19035236171915,21.180828064128356],[106.18839932872753,21.18014141879152],[106.18678952701262,21.17838009347912],[106.18454663259669,21.17583836024889],[106.18161699655384,21.175280965032904],[106.1788879918494,21.175780421442074],[106.17649791110141,21.17744806592378],[106.171936276485,21.179691077680122],[106.16976023038033,21.18113135541171],[106.16767341326039,21.184359737678548],[106.16610829244136,21.186932642059713],[106.16345955113239,21.192042773242136],[106.16140833785707,21.194762766850687],[106.15921006250768,21.198102676256685],[106.15528156781218,21.203890599464536],[106.15318135343765,21.207118978652694],[106.14987269074065,21.210320632558545],[106.1465595071814,21.212059660510576],[106.14103027061336,21.213928005112045],[106.13279875391821,21.21630915799066],[106.1305780971825,21.215970242283273],[106.12858492011567,21.215158711580006],[106.12666300479992,21.213508856604214],[106.12523611598802,21.211760854356417],[106.124518234145,21.209402038526484],[106.1243666008961,21.2036229858225],[106.12413915124263,21.200363453649526],[106.123595157343,21.198530726962662],[106.12274799056523,21.197772673112244],[106.1219319612122,21.197482816488517],[106.12129430325716,21.19738919594216],[106.1188640980875,21.19759876565764],[106.11414185586973,21.200140446387596],[106.11192123109274,21.20058193419583],[106.10569184523813,21.20072907851321],[106.09958735823061,21.201549529333075],[106.09326883576512,21.20295862934891],[106.09008058592408,21.20414923704224],[106.0873114978218,21.205411167522527],[106.08538065899482,21.20731071268329],[106.08515325473502,21.208581517025515],[106.0865802096496,21.21300947098466],[106.0864553383423,21.21453891775372],[106.08396716865897,21.216340414613843],[106.08199177996876,21.218917759364107],[106.08035082590868,21.219269992954082],[106.07885699834263,21.218980182957175],[106.07527187697124,21.216590079151388],[106.0735328473825,21.216001507905098],[106.07256525149661,21.21647861572235],[106.06745959689856,21.221941029972697],[106.06504271011448,21.22351951444227],[106.06195699628559,21.224799344494098],[106.06057919545387,21.22553057747093],[106.05348028161131,21.22710021565173],[106.05265978891957,21.226970901573175],[106.0497346370278,21.225249706094832],[106.04846822699008,21.223889686157698],[106.04692092196701,21.221388097682663],[106.04569022599615,21.21865019198833],[106.04332688480629,21.216389418219773],[106.04207387996509,21.214828784698074],[106.04199809545096,21.212331637330028],[106.04189997921297,21.210209150798246],[106.04300580770672,21.207359786752633],[106.04585076671079,21.204002082541116],[106.0457392850719,21.202691033561017],[106.04297020226235,21.200831633531646],[106.04142733587679,21.201228479391908],[106.04045972108982,21.201870637033164],[106.03858244206337,21.204951803239297],[106.03732937834508,21.207292881770226],[106.03481448645339,21.211020680849263],[106.03412778909497,21.21325916904872],[106.03388250860199,21.216170984555692],[106.03389587122409,21.219689179419078],[106.03463162400809,21.228201639203537],[106.03376654977924,21.23130962785748],[106.0323887705914,21.236183402139766],[106.03320917713852,21.238899007079713],[106.03494380860133,21.241819723796027],[106.03523805716826,21.243919902909866],[106.03476543015505,21.244499575678848],[106.03389587122409,21.24528887459358],[106.03051148047093,21.247491665588587],[106.02752828322755,21.250042257341615],[106.0253612007949,21.251981962629294],[106.02276602502455,21.253181468517553],[106.01803491215493,21.254487999559213],[106.01441854731593,21.25571867644211],[106.00794839420078,21.257868005189554],[106.00496079478987,21.257591565211783],[106.00303445540601,21.25689145838589],[106.00186169605742,21.257087656487393],[106.00009149671246,21.257159033165397],[105.99822313011441,21.258131044683985],[105.99315755161362,21.262897834324804],[105.99234153034904,21.26320103804406],[105.991851076435,21.263049484350276],[105.99086111652569,21.26183212181546],[105.99051780131177,21.260440927710913],[105.98805184964071,21.256918233790405],[105.98607654694698,21.254157993521158],[105.98557266019155,21.251090185019105],[105.98561722094179,21.24833887333763],[105.98644217948531,21.246510633224336],[105.9882124318611,21.243790628790293],[105.98977755519687,21.24111073333894],[105.99027248687474,21.239719469800608],[105.99009863301073,21.237262484735517],[105.98975971257518,21.23618782051448],[105.98861814689396,21.234810007597062],[105.98615230939438,21.23357925852615],[105.98385586882088,21.232972828809253],[105.9830398872746,21.23281227111549],[105.98040897349308,21.230819124997623],[105.97941459005494,21.22974888191601],[105.97859862749651,21.22821048149199],[105.97776922006052,21.225298743949217],[105.97741696282112,21.22252961244845],[105.97599897487483,21.22206136625465],[105.97395216337554,21.222070361467555],[105.9701931881076,21.22269011063291],[105.9675667548492,21.223461559413437],[105.96546212005065,21.224848329002935],[105.96499836121819,21.226230663524746],[105.96483779854539,21.2271581759387],[105.96444091975631,21.227760126840202],[105.96334845397949,21.228781243798633],[105.96232735467935,21.22911125743923],[105.96138201346282,21.229191471730157],[105.95961622368597,21.22900867986118],[105.95862625185408,21.22747032241165],[105.95715918816613,21.22608795966472],[105.9559151736497,21.2262217929218],[105.9550010608033,21.226908476372124],[105.95388175591926,21.229619569468856],[105.95208923238445,21.233311763543817],[105.95095658783703,21.23393158401195],[105.94915960981139,21.234230320472317],[105.947023714788,21.233766531796334],[105.94358125160835,21.232089897502583],[105.94095482772437,21.2319427631481],[105.9385201742694,21.232861322242155],[105.93556826280978,21.2356260032317],[105.93476118316505,21.237311517906676],[105.93460064607618,21.23870281505136],[105.93559058214252,21.241311364121398],[105.93641550294123,21.242693662050517],[105.93657604156958,21.243313486236516]]]},"id":"000000000000000000eb","properties":{"ADM0_CODE":264,"ADM0_NAME":"Viet Nam","ADM1_CODE":3331,"ADM1_NAME":"Bac Ninh","DISP_AREA":"NO","EXP1_YEAR":3000,"STATUS":"Member State","STR1_YEAR":1997,"Shape_Area":0.0710104678998,"Shape_Leng":1.63066947085}}]}